SENTINEL-6              
1 46984U 20086A   24053.44501852 -.00000030  00000+0  13313-3 0  9997
2 46984  66.0401  91.6685 0007841 270.5757  89.4359 12.80930940152000
